NORAD_CAT_ID,OBJECT_NAME,OBJECT_TYPE,EPOCH,MEAN_MOTION,ECCENTRICITY,INCLINATION,RA_OF_ASC_NODE,ARG_OF_PERICENTER,MEAN_ANOMALY,BSTAR,MEAN_MOTION_DOT,MEAN_MOTION_DDOT,TLE_LINE0,TLE_LINE1,TLE_LINE2,SEMIMAJOR_AXIS,PERIOD,APOGEE,PERIGEE,DECAYED
53398.0,STARLINK-4512,PAYLOAD,2023-04-17 05:20:46,15.08823326,5.8e-05,53.2158,191.2725,144.5051,215.5979,-0.00034404,-5.756e-05,0.0,0 STARLINK-4512,1 53398U 22097L   23107.22275874 -.00005756  00000-0 -34404-3 0  9991,2 53398  53.2158 191.2725 0000580 144.5051 215.5979 15.08823326 38382,6917.931,95.439,540.198,539.395,0.0
53398.0,STARLINK-4512,PAYLOAD,2023-04-17 11:42:19,15.08834463,0.0001051,53.2151,190.0869,86.4485,273.6627,0.00023343,3.429e-05,0.0,0 STARLINK-4512,1 53398U 22097L   23107.48772082  .00003429  00000-0  23343-3 0  9995,2 53398  53.2151 190.0869 0001051  86.4485 273.6627 15.08834463 38424,6917.897,95.438,540.489,539.035,0.0
53398.0,STARLINK-4512,PAYLOAD,2023-04-17 14:53:05,15.08843349,0.0001196,53.2151,189.4911,90.698,269.4149,0.00048738,7.478e-05,0.0,0 STARLINK-4512,1 53398U 22097L   23107.62019968  .00007478  00000-0  48738-3 0  9991,2 53398  53.2151 189.4911 0001196  90.6980 269.4149 15.08843349 38932,6917.87,95.437,540.563,538.908,0.0
53398.0,STARLINK-4512,PAYLOAD,2023-04-18 09:57:43,15.08837228,0.0001199,53.2158,185.9239,82.4514,277.6614,0.00032436,4.878e-05,0.0,0 STARLINK-4512,1 53398U 22097L   23108.41508461  .00004878  00000-0  32436-3 0  9999,2 53398  53.2158 185.9239 0001199  82.4514 277.6614 15.08837228 39059,6917.889,95.438,540.583,538.924,0.0
53398.0,STARLINK-4512,PAYLOAD,2023-04-18 16:19:15,15.08851568,0.0001159,53.2161,184.7311,103.9752,256.1369,0.00051985,7.998e-05,0.0,0 STARLINK-4512,1 53398U 22097L   23108.68003889  .00007998  00000-0  51985-3 0  9998,2 53398  53.2161 184.7311 0001159 103.9752 256.1369 15.08851568 38602,6917.845,95.437,540.512,538.908,0.0
53398.0,STARLINK-4512,PAYLOAD,2023-04-18 22:40:48,15.08833998,0.00012,53.2162,183.5439,85.4452,274.6677,8.4167e-05,1.052e-05,0.0,0 STARLINK-4512,1 53398U 22097L   23108.94500484  .00001052  00000-0  84167-4 0  9994,2 53398  53.2162 183.5439 0001200  85.4452 274.6677 15.08833998 38647,6917.899,95.438,540.594,538.934,0.0
53398.0,STARLINK-4512,PAYLOAD,2023-04-19 08:13:07,15.08839396,0.0001254,53.2161,181.7617,64.7307,295.3815,0.00023376,3.434e-05,0.0,0 STARLINK-4512,1 53398U 22097L   23109.34244675  .00003434  00000-0  23376-3 0  9996,2 53398  53.2161 181.7617 0001254  64.7307 295.3815 15.08839396 39195,6917.882,95.438,540.615,538.88,0.0
53398.0,STARLINK-4512,PAYLOAD,2023-04-19 16:10:02,15.08858476,0.0001181,53.2164,180.2718,87.7969,272.3158,0.00098977,0.00015507,0.0,0 STARLINK-4512,1 53398U 22097L   23109.67364194  .00015507  00000-0  98977-3 0  9994,2 53398  53.2164 180.2718 0001181  87.7969 272.3158 15.08858476 39243,6917.824,95.436,540.506,538.872,0.0
53398.0,STARLINK-4512,PAYLOAD,2023-04-20 08:03:54,15.08850056,0.0001219,53.215,177.2988,91.7707,268.3425,0.00061335,9.49e-05,0.0,0 STARLINK-4512,1 53398U 22097L   23110.33604441  .00009490  00000-0  61335-3 0  9993,2 53398  53.2150 177.2988 0001219  91.7707 268.3425 15.08850056 39349,6917.85,95.437,540.558,538.871,0.0
53398.0,STARLINK-4512,PAYLOAD,2023-04-20 14:25:26,15.08852688,0.0001264,53.2158,176.1106,80.6067,279.5068,0.0011026,0.00017309,0.0,0 STARLINK-4512,1 53398U 22097L   23110.60100380  .00017309  00000-0  11026-2 0  9995,2 53398  53.2158 176.1106 0001264  80.6067 279.5068 15.08852688 38892,6917.842,95.437,540.581,538.832,0.0
53398.0,STARLINK-4512,PAYLOAD,2023-04-20 20:46:58,15.08862893,0.0001229,53.2156,174.9206,83.2343,276.8789,0.0010504,0.00016479,0.0,0 STARLINK-4512,1 53398U 22097L   23110.86596003  .00016479  00000-0  10504-2 0  9991,2 53398  53.2156 174.9206 0001229  83.2343 276.8789 15.08862893 39423,6917.81,95.436,540.526,538.825,0.0
53398.0,STARLINK-4512,PAYLOAD,2023-04-21 03:08:32,15.08832015,0.0001109,53.2159,173.7294,116.2761,243.8345,0.00034721,5.241e-05,0.0,0 STARLINK-4512,1 53398U 22097L   23111.13092750  .00005241  00000-0  34721-3 0  9995,2 53398  53.2159 173.7294 0001109 116.2761 243.8345 15.08832015 38972,6917.905,95.438,540.537,539.003,0.0
53398.0,STARLINK-4512,PAYLOAD,2023-04-21 20:37:47,15.08842645,0.0001277,53.215,170.4593,91.4707,268.6432,0.00071123,0.0001105,0.0,0 STARLINK-4512,1 53398U 22097L   23111.85957180  .00011050  00000-0  71123-3 0  9993,2 53398  53.2150 170.4593 0001277  91.4707 268.6432 15.08842645 39578,6917.872,95.437,540.621,538.854,0.0
53398.0,STARLINK-4512,PAYLOAD,2023-04-22 20:28:33,15.08840592,0.0001027,53.2147,166.0004,103.923,256.1877,3.7555e-05,3.1e-06,0.0,0 STARLINK-4512,1 53398U 22097L   23112.85316776  .00000310  00000-0  37555-4 0  9993,2 53398  53.2147 166.0004 0001027 103.9230 256.1877 15.08840592 39232,6917.879,95.438,540.454,539.033,0.0
53398.0,STARLINK-4512,PAYLOAD,2023-04-23 12:22:25,15.08838518,0.0001269,53.2142,163.0254,93.3239,266.7899,0.00019317,2.788e-05,0.0,0 STARLINK-4512,1 53398U 22097L   23113.51557086  .00002788  00000-0  19317-3 0  9994,2 53398  53.2142 163.0254 0001269  93.3239 266.7899 15.08838518 39821,6917.885,95.438,540.628,538.872,0.0
53398.0,STARLINK-4512,PAYLOAD,2023-04-23 15:33:11,15.08841419,0.0001136,53.2138,162.4304,95.0828,265.0293,0.0001895,2.729e-05,0.0,0 STARLINK-4512,1 53398U 22097L   23113.64805033  .00002729  00000-0  18950-3 0  9993,2 53398  53.2138 162.4304 0001136  95.0828 265.0293 15.08841419 39847,6917.876,95.437,540.527,538.955,0.0
53398.0,STARLINK-4512,PAYLOAD,2023-04-24 15:23:57,15.08891885,0.0001437,53.2146,157.9685,84.8406,275.275,0.0015759,0.00024917,0.0,0 STARLINK-4512,1 53398U 22097L   23114.64163575  .00024917  00000-0  15759-2 0  9998,2 53398  53.2146 157.9685 0001437  84.8406 275.2750 15.08891885 39505,6917.722,95.434,540.581,538.593,0.0
53398.0,STARLINK-4512,PAYLOAD,2023-04-25 08:53:12,15.08819407,0.0001317,53.2137,154.7,67.5281,292.5851,-1.4534e-06,-3.11e-06,0.0,0 STARLINK-4512,1 53398U 22097L   23115.37028778 -.00000311  00000-0 -14534-5 0  9991,2 53398  53.2137 154.7000 0001317  67.5281 292.5851 15.08819407 40109,6917.943,95.439,540.719,538.897,0.0
53398.0,STARLINK-4512,PAYLOAD,2023-04-26 11:54:47,15.08838576,0.0001469,53.2149,149.644,66.3107,293.8039,0.00060391,9.336e-05,0.0,0 STARLINK-4512,1 53398U 22097L   23116.49637793  .00009336  00000-0  60391-3 0  9992,2 53398  53.2149 149.6440 0001469  66.3107 293.8039 15.08838576 40273,6917.885,95.438,540.766,538.734,0.0
53398.0,STARLINK-4512,PAYLOAD,2023-04-26 13:30:10,15.08841385,0.0001474,53.2147,149.3466,66.128,293.9866,0.00061741,9.552e-05,0.0,0 STARLINK-4512,1 53398U 22097L   23116.56261755  .00009552  00000-0  61741-3 0  9991,2 53398  53.2147 149.3466 0001474  66.1280 293.9866 15.08841385 40284,6917.876,95.437,540.761,538.721,0.0
53398.0,STARLINK-4512,PAYLOAD,2023-04-27 11:45:33,15.08847856,0.000161,53.2159,145.183,65.7816,294.3344,0.00039569,6.016e-05,0.0,0 STARLINK-4512,1 53398U 22097L   23117.48997658  .00006016  00000-0  39569-3 0  9996,2 53398  53.2159 145.1830 0001610  65.7816 294.3344 15.08847856 40429,6917.856,95.437,540.835,538.608,0.0
53398.0,STARLINK-4512,PAYLOAD,2023-04-28 08:25:34,15.08847628,0.0001525,53.2158,141.3168,70.5881,289.5276,0.00018355,2.635e-05,0.0,0 STARLINK-4512,1 53398U 22097L   23118.35109309  .00002635  00000-0  18355-3 0  9994,2 53398  53.2158 141.3168 0001525  70.5881 289.5276 15.08847628 40068,6917.857,95.437,540.777,538.667,0.0
53398.0,STARLINK-4512,PAYLOAD,2023-04-28 17:57:53,15.08836071,0.0001771,53.2157,139.5326,71.4399,288.6785,-1.7558e-05,-5.68e-06,0.0,0 STARLINK-4512,1 53398U 22097L   23118.74853862 -.00000568  00000-0 -17558-4 0  9997,2 53398  53.2157 139.5326 0001771  71.4399 288.6785 15.08836071 40121,6917.892,95.438,540.983,538.532,0.0
53398.0,STARLINK-4512,PAYLOAD,2023-04-29 06:40:58,15.08839149,0.0001451,53.2154,137.1534,74.9105,285.2048,1.9385e-05,2.1e-07,0.0,0 STARLINK-4512,1 53398U 22097L   23119.27845605  .00000021  00000-0  19385-4 0  9994,2 53398  53.2154 137.1534 0001451  74.9105 285.2048 15.08839149 40697,6917.883,95.438,540.752,538.744,0.0
53398.0,STARLINK-4512,PAYLOAD,2023-04-30 00:10:13,15.08838886,0.0001432,53.2153,133.8828,78.313,281.8023,4.3985e-05,4.12e-06,0.0,0 STARLINK-4512,1 53398U 22097L   23120.00709666  .00000412  00000-0  43985-4 0  9990,2 53398  53.2153 133.8828 0001432  78.3130 281.8023 15.08838886 40311,6917.884,95.438,540.739,538.758,0.0
53398.0,STARLINK-4512,PAYLOAD,2023-04-30 11:17:54,15.08842827,0.0001472,53.2155,131.8017,75.9954,284.1201,0.00013006,1.783e-05,0.0,0 STARLINK-4512,1 53398U 22097L   23120.47077522  .00001783  00000-0  13006-3 0  9992,2 53398  53.2155 131.8017 0001472  75.9954 284.1201 15.08842827 40877,6917.872,95.437,540.755,538.718,0.0
53398.0,STARLINK-4512,PAYLOAD,2023-05-01 06:22:33,15.08836816,0.0001551,53.2153,128.234,75.2275,284.8889,8.526e-05,1.069e-05,0.0,0 STARLINK-4512,1 53398U 22097L   23121.26566099  .00001069  00000-0  85260-4 0  9991,2 53398  53.2153 128.2340 0001551  75.2275 284.8889 15.08836816 40501,6917.89,95.438,540.828,538.682,0.0
53398.0,STARLINK-4512,PAYLOAD,2023-05-01 07:57:56,15.08836836,0.0001551,53.2153,127.9366,75.0718,285.0445,8.0576e-05,9.94e-06,0.0,0 STARLINK-4512,1 53398U 22097L   23121.33190108  .00000994  00000-0  80576-4 0  9994,2 53398  53.2153 127.9366 0001551  75.0718 285.0445 15.08836836 41004,6917.89,95.438,540.828,538.682,0.0
53398.0,STARLINK-4512,PAYLOAD,2023-05-02 09:24:06,15.08846444,0.0001653,53.2157,123.1784,72.3127,287.8045,0.00017305,2.468e-05,0.0,0 STARLINK-4512,1 53398U 22097L   23122.39173755  .00002468  00000-0  17305-3 0  9997,2 53398  53.2157 123.1784 0001653  72.3127 287.8045 15.08846444 40671,6917.861,95.437,540.869,538.582,0.0
53398.0,STARLINK-4512,PAYLOAD,2023-05-02 17:21:01,15.0884382,0.0001555,53.2154,121.6917,76.4253,283.6913,0.00012766,1.744e-05,0.0,0 STARLINK-4512,1 53398U 22097L   23122.72293819  .00001744  00000-0  12766-3 0  9990,2 53398  53.2154 121.6917 0001555  76.4253 283.6913 15.08843820 41219,6917.869,95.437,540.809,538.658,0.0
